COSMOS 2058             
1 20465U 90010A   26195.79674119  .00001617  00000+0  92067-4 0  9996
2 20465  82.4672 282.1252 0007921 251.7193 108.3176 15.12155088961443
SL-14 R/B               
1 20466U 90010B   26195.88681529  .00000188  00000+0  19917-4 0  9995
2 20466  82.5034 147.9321 0018363 238.3605 121.5819 14.83662976947343
SL-14 R/B               
1 20511U 90018B   26195.82458211  .00000215  00000+0  23938-4 0  9997
2 20511  82.5217 104.2767 0017053  38.0266 322.2148 14.82233955941417
HST                     
1 20580U 90037B   26195.52261565  .00003561  00000+0  10789-3 0  9991
2 20580  28.4723 253.7049 0002219  97.0463 263.0385 15.31057008792764
SL-16 R/B               
1 20625U 90046B   26195.87121663  .00000237  00000+0  14670-3 0  9993
2 20625  70.9986  30.8044 0012415 114.9619 245.2795 14.15024547866387
COSMOS 2084             
1 20663U 90055A   26195.54755292  .00000858  00000+0  72029-4 0  9992
2 20663  62.7884 262.6983 0008008 317.5125  42.5355 15.06222480955429
SL-6 R/B(2)             
1 20666U 90055D   26195.30833460  .00001022  00000+0  86685-4 0  9990
2 20666  62.7804 183.0791 0044993   8.8848 351.3037 15.04085810957233
SL-8 R/B                
1 20775U 90078B   26195.87394605  .00009891  00000+0  28033-3 0  9995
2 20775  82.9037 136.6022 0343510 304.6265  52.3001 14.93567999828252
SL-8 R/B                
1 21088U 91006B   26195.81224520  .00000091  00000+0  75496-4 0  9996
2 21088  82.9408  75.4811 0023458  41.5485  29.5651 13.77509169781571
OKEAN-3                 
1 21397U 91039A   26195.98957264  .00001754  00000+0  12011-3 0  9991
2 21397  82.5142 213.4176 0012375 255.4796 104.5059 15.05433611884188
COSMOS 2151             
1 21422U 91042A   26195.86827685  .00000666  00000+0  50637-4 0  9992
2 21422  82.4981 320.9664 0011993 356.6299   3.4842 15.00512538882265
SL-14 R/B               
1 21423U 91042B   26195.83700488  .00000179  00000+0  19595-4 0  9998
2 21423  82.4932 100.9674 0016944 178.0767 182.0515 14.81917929871907
ERS-1                   
1 21574U 91050A   26195.89822636  .00000155  00000+0  64090-4 0  9994
2 21574  98.7796 217.2728 0031834 182.6336 177.4689 14.39532884834031
ARIANE 40 R/B           
1 21610U 91050F   26195.71659169  .00000121  00000+0  48673-4 0  9997
2 21610  98.1864 243.0592 0004180  62.5151 297.6464 14.42971720837313
INTERCOSMOS 25          
1 21819U 91086A   26195.59788142  .00000183  00000+0  33527-4 0  9997
2 21819  82.6009 233.2225 1484556 203.2142 149.4604 12.12240062512066
SL-8 R/B                
1 21876U 92008B   26195.90334593  .00000098  00000+0  84867-4 0  9995
2 21876  82.9271 173.1803 0035652 137.3992 282.8164 13.75983749726915
SL-8 R/B                
1 21938U 92020B   26195.69486830  .00000017  00000+0  19552-5 0  9997
2 21938  82.9280  59.4220 0027979 304.9708 115.6914 13.75550267718599
USA 81                  
1 21949U 92023A   26195.72828755  .00000109  00000+0  32856-4 0  9995
2 21949  85.0051  58.1082 0002004  65.1095 295.0306 14.32404872112972
COSMOS 2219             
1 22219U 92076A   26195.91959320 -.00000215  00000+0 -87777-4 0  9990
2 22219  71.0612 112.0997 0018248 357.8855   2.2187 14.14108813736364
SL-16 R/B               
1 22220U 92076B   26195.71546007  .00000169  00000+0  10831-3 0  9996
2 22220  71.0005 280.7921 0015026 262.7553 213.2658 14.16877254739827
COSMOS 2221             
1 22236U 92080A   26195.88647505  .00000831  00000+0  70484-4 0  9998
2 22236  82.5045 157.2261 0015696 121.1687 239.1077 14.96603490799813
SL-16 R/B               
1 22285U 92093B   26195.87417352 -.00000233  00000+0 -95197-4 0  9996
2 22285  71.0218  97.2693 0002283 135.6809 224.4498 14.15465932731153
COSMOS 2228             
1 22286U 92094A   26195.88220086  .00000836  00000+0  68974-4 0  9995
2 22286  82.5188 115.5154 0016287 230.2870 129.6918 14.97674927795094
SL-16 R/B               
1 22566U 93016B   26195.71582694  .00000175  00000+0  11429-3 0  9997
2 22566  71.0085 308.3875 0008864 138.8661 221.3132 14.15312394720148
COSMOS 2242             
1 22626U 93024A   26195.92121461  .00000883  00000+0  74385-4 0  9994
2 22626  82.5198 145.0089 0014651 233.6349 126.3522 14.96984451799420
SL-16 R/B               
1 22803U 93059B   26195.87504938 -.00000160  00000+0 -55331-4 0  9997
2 22803  70.9902 102.9159 0016630   8.9935 351.1484 14.17249545697551
ARIANE 40 R/B           
1 22830U 93061H   26195.78742727  .00000074  00000+0  42714-4 0  9993
2 22830  98.4807 262.0694 0009478 267.1096  92.9004 14.32918418712309
COSMOS 2278             
1 23087U 94023A   26195.61662874 -.00000021  00000+0  13914-4 0  9996
2 23087  71.0524 269.5368 0009667 206.4362 153.6269 14.14393212662759
SL-16 R/B               
1 23088U 94023B   26195.95959751  .00000098  00000+0  75210-4 0  9997
2 23088  70.9984 163.6064 0001412 129.0643 231.0606 14.15024443664090
SL-16 R/B               
1 23343U 94074B   26195.94435292  .00000193  00000+0  32384-4 0  9996
2 23343  97.6986 221.5076 0007148 155.0324 269.4687 14.79524171706067
