OBJECT_NAME,OBJECT_ID,EPOCH,MEAN_MOTION,ECCENTRICITY,INCLINATION,RA_OF_ASC_NODE,ARG_OF_PERICENTER,MEAN_ANOMALY,EPHEMERIS_TYPE,CLASSIFICATION_TYPE,NORAD_CAT_ID,ELEMENT_SET_NO,REV_AT_EPOCH,BSTAR,MEAN_MOTION_DOT,MEAN_MOTION_DDOT
COSMOS 2058,1990-010A,2026-07-14T19:07:18.438816,15.12155088,.00079219,82.4672,282.1252,251.7193,108.3176,0,U,20465,999,96144,.92067197E-4,.1617E-4,0
SL-14 R/B,1990-010B,2026-07-14T21:17:00.841056,14.83662976,.00183638,82.5034,147.9321,238.3605,121.5819,0,U,20466,999,94734,.19916922E-4,.188E-5,0
SL-14 R/B,1990-018B,2026-07-14T19:47:23.894304,14.82233955,.00170536,82.5217,104.2767,38.0266,322.2148,0,U,20511,999,94141,.23937722E-4,.215E-5,0
HST,1990-037B,2026-07-14T12:32:33.992160,15.31057008,.00022197,28.4723,253.7049,97.0463,263.0385,0,U,20580,999,79276,.10788648E-3,.3561E-4,0
SL-16 R/B,1990-046B,2026-07-14T20:54:33.116832,14.15024547,.00124156,70.9986,30.8044,114.9619,245.2795,0,U,20625,999,86638,.14669662E-3,.237E-5,0
COSMOS 2084,1990-055A,2026-07-14T13:08:28.572288,15.06222480,.0008008,62.7884,262.6983,317.5125,42.5355,0,U,20663,999,95542,.72029E-4,.858E-5,0
SL-6 R/B(2),1990-055D,2026-07-14T07:24:00.109440,15.04085810,.00449936,62.7804,183.0791,8.8848,351.3037,0,U,20666,999,95723,.86685447E-4,.1022E-4,0
SL-8 R/B,1990-078B,2026-07-14T20:58:28.938720,14.93567999,.03435109,82.9037,136.6022,304.6265,52.3001,0,U,20775,999,82825,.28032885E-3,.9891E-4,0
SL-8 R/B,1991-006B,2026-07-14T19:29:37.985280,13.77509169,.00234581,82.9408,75.4811,41.5485,29.5651,0,U,21088,999,78157,.75496383E-4,.91E-6,0
OKEAN-3,1991-039A,2026-07-14T23:44:59.076096,15.05433611,.00123757,82.5142,213.4176,255.4796,104.5059,0,U,21397,999,88418,.12010724E-3,.1754E-4,0
COSMOS 2151,1991-042A,2026-07-14T20:50:19.119840,15.00512538,.00119939,82.4981,320.9664,356.6299,3.4842,0,U,21422,999,88226,.50636552E-4,.666E-5,0
SL-14 R/B,1991-042B,2026-07-14T20:05:17.221632,14.81917929,.00169443,82.4932,100.9674,178.0767,182.0515,0,U,21423,999,87190,.19594574E-4,.179E-5,0
ERS-1,1991-050A,2026-07-14T21:33:26.757504,14.39532884,.00318347,98.7796,217.2728,182.6336,177.4689,0,U,21574,999,83403,.6409017E-4,.155E-5,0
ARIANE 40 R/B,1991-050F,2026-07-14T17:11:53.522016,14.42971720,.00041808,98.1864,243.0592,62.5151,297.6464,0,U,21610,999,83731,.48672682E-4,.121E-5,0
INTERCOSMOS 25,1991-086A,2026-07-14T14:20:56.954688,12.12240062,.1484556,82.6009,233.2225,203.2142,149.4604,0,U,21819,999,51206,.33527E-4,.183E-5,0
SL-8 R/B,1992-008B,2026-07-14T21:40:49.088352,13.75983749,.00356525,82.9271,173.1803,137.3992,282.8164,0,U,21876,999,72691,.84866661E-4,.98E-6,0
SL-8 R/B,1992-020B,2026-07-14T16:40:36.621120,13.75550267,.00279796,82.9280,59.4220,304.9708,115.6914,0,U,21938,999,71859,.1955175E-5,.17E-6,0
USA 81,1992-023A,2026-07-14T17:28:44.044320,14.32404872,.0002004,85.0051,58.1082,65.1095,295.0306,0,U,21949,999,11297,.32856475E-4,.109E-5,0
COSMOS 2219,1992-076A,2026-07-14T22:04:12.852480,14.14108813,.00182484,71.0612,112.0997,357.8855,2.2187,0,U,22219,999,73636,-.87776838E-4,-.215E-5,0
SL-16 R/B,1992-076B,2026-07-14T17:10:15.750048,14.16877254,.00150264,71.0005,280.7921,262.7553,213.2658,0,U,22220,999,73982,.1083074E-3,.169E-5,0
COSMOS 2221,1992-080A,2026-07-14T21:16:31.444320,14.96603490,.00156967,82.5045,157.2261,121.1687,239.1077,0,U,22236,999,79981,.7048364E-4,.831E-5,0
SL-16 R/B,1992-093B,2026-07-14T20:58:48.592128,14.15465932,.00022835,71.0218,97.2693,135.6809,224.4498,0,U,22285,999,73115,-.95197358E-4,-.233E-5,0
COSMOS 2228,1992-094A,2026-07-14T21:10:22.154304,14.97674927,.00162874,82.5188,115.5154,230.2870,129.6918,0,U,22286,999,79509,.68974338E-4,.836E-5,0
SL-16 R/B,1993-016B,2026-07-14T17:10:47.447616,14.15312394,.00088645,71.0085,308.3875,138.8661,221.3132,0,U,22566,999,72014,.11429397E-3,.175E-5,0
COSMOS 2242,1993-024A,2026-07-14T22:06:32.942304,14.96984451,.00146511,82.5198,145.0089,233.6349,126.3522,0,U,22626,999,79942,.7438509E-4,.883E-5,0
SL-16 R/B,1993-059B,2026-07-14T21:00:04.266432,14.17249545,.00166303,70.9902,102.9159,8.9935,351.1484,0,U,22803,999,69755,-.55331292E-4,-.16E-5,0
ARIANE 40 R/B,1993-061H,2026-07-14T18:53:53.716128,14.32918418,.00094784,98.4807,262.0694,267.1096,92.9004,0,U,22830,999,71230,.4271448E-4,.74E-6,0
COSMOS 2278,1994-023A,2026-07-14T14:47:56.723136,14.14393212,.0009667,71.0524,269.5368,206.4362,153.6269,0,U,23087,999,66275,.13914E-4,-.21E-6,0
SL-16 R/B,1994-023B,2026-07-14T23:01:49.224864,14.15024443,.00014122,70.9984,163.6064,129.0643,231.0606,0,U,23088,999,66409,.75210009E-4,.98E-6,0
SL-16 R/B,1994-074B,2026-07-14T22:39:52.092288,14.79524171,.00071483,97.6986,221.5076,155.0324,269.4687,0,U,23343,999,70606,.3238411E-4,.193E-5,0
